CCSDS_OMM_VERS = 2.0
CREATION_DATE  = 
ORIGINATOR     = 

OBJECT_NAME    = STARLINK-35599
OBJECT_ID      = 2025-236S
CENTER_NAME    = EARTH
REF_FRAME      = TEME
TIME_SYSTEM    = UTC
MEAN_ELEMENT_THEORY = SGP/SGP4

EPOCH          = 2025-11-10T22:00:00.999936
MEAN_MOTION    = 15.65765797
ECCENTRICITY   = .00011733
INCLINATION    = 53.1592
RA_OF_ASC_NODE = 298.1205
ARG_OF_PERICENTER = 89.6469
MEAN_ANOMALY   = 283.7793

EPHEMERIS_TYPE = 0
CLASSIFICATION_TYPE = U
NORAD_CAT_ID   = 66102
ELEMENT_SET_NO = 999
REV_AT_EPOCH   = 470
BSTAR          = -.21855449E-1
MEAN_MOTION_DOT = -.1986408E-1
MEAN_MOTION_DDOT = 0

CCSDS_OMM_VERS = 2.0
CREATION_DATE  = 
ORIGINATOR     = 

OBJECT_NAME    = STARLINK-35622
OBJECT_ID      = 2025-236T
CENTER_NAME    = EARTH
REF_FRAME      = TEME
TIME_SYSTEM    = UTC
MEAN_ELEMENT_THEORY = SGP/SGP4

EPOCH          = 2025-11-10T22:00:00.999936
MEAN_MOTION    = 15.65763216
ECCENTRICITY   = .0001029
INCLINATION    = 53.1593
RA_OF_ASC_NODE = 298.1123
ARG_OF_PERICENTER = 91.6094
MEAN_ANOMALY   = 285.6548

EPHEMERIS_TYPE = 0
CLASSIFICATION_TYPE = U
NORAD_CAT_ID   = 66103
ELEMENT_SET_NO = 999
REV_AT_EPOCH   = 476
BSTAR          = -.21840318E-1
MEAN_MOTION_DOT = -.1984909E-1
MEAN_MOTION_DDOT = 0

CCSDS_OMM_VERS = 2.0
CREATION_DATE  = 
ORIGINATOR     = 

OBJECT_NAME    = STARLINK-35452
OBJECT_ID      = 2025-236U
CENTER_NAME    = EARTH
REF_FRAME      = TEME
TIME_SYSTEM    = UTC
MEAN_ELEMENT_THEORY = SGP/SGP4

EPOCH          = 2025-11-10T22:00:00.999936
MEAN_MOTION    = 15.65764406
ECCENTRICITY   = .00010697
INCLINATION    = 53.1593
RA_OF_ASC_NODE = 298.1161
ARG_OF_PERICENTER = 90.9735
MEAN_ANOMALY   = 284.3741

EPHEMERIS_TYPE = 0
CLASSIFICATION_TYPE = U
NORAD_CAT_ID   = 66104
ELEMENT_SET_NO = 999
REV_AT_EPOCH   = 476
BSTAR          = -.21874769E-1
MEAN_MOTION_DOT = -.1987776E-1
MEAN_MOTION_DDOT = 0

CCSDS_OMM_VERS = 2.0
CREATION_DATE  = 
ORIGINATOR     = 

OBJECT_NAME    = STARLINK-35561
OBJECT_ID      = 2025-236V
CENTER_NAME    = EARTH
REF_FRAME      = TEME
TIME_SYSTEM    = UTC
MEAN_ELEMENT_THEORY = SGP/SGP4

EPOCH          = 2025-11-10T22:00:00.999936
MEAN_MOTION    = 15.65764577
ECCENTRICITY   = .0001105
INCLINATION    = 53.1589
RA_OF_ASC_NODE = 298.1080
ARG_OF_PERICENTER = 96.7322
MEAN_ANOMALY   = 282.4504

EPHEMERIS_TYPE = 0
CLASSIFICATION_TYPE = U
NORAD_CAT_ID   = 66105
ELEMENT_SET_NO = 999
REV_AT_EPOCH   = 470
BSTAR          = -.21893567E-1
MEAN_MOTION_DOT = -.1989317E-1
MEAN_MOTION_DDOT = 0

CCSDS_OMM_VERS = 2.0
CREATION_DATE  = 
ORIGINATOR     = 

OBJECT_NAME    = STARLINK-35584
OBJECT_ID      = 2025-236W
CENTER_NAME    = EARTH
REF_FRAME      = TEME
TIME_SYSTEM    = UTC
MEAN_ELEMENT_THEORY = SGP/SGP4

EPOCH          = 2025-11-10T22:00:00.999936
MEAN_MOTION    = 15.65764176
ECCENTRICITY   = .00011056
INCLINATION    = 53.1592
RA_OF_ASC_NODE = 298.1034
ARG_OF_PERICENTER = 89.5537
MEAN_ANOMALY   = 291.5433

EPHEMERIS_TYPE = 0
CLASSIFICATION_TYPE = U
NORAD_CAT_ID   = 66106
ELEMENT_SET_NO = 999
REV_AT_EPOCH   = 476
BSTAR          = -.21856647E-1
MEAN_MOTION_DOT = -.1986338E-1
MEAN_MOTION_DDOT = 0

CCSDS_OMM_VERS = 2.0
CREATION_DATE  = 
ORIGINATOR     = 

OBJECT_NAME    = STARLINK-35593
OBJECT_ID      = 2025-236X
CENTER_NAME    = EARTH
REF_FRAME      = TEME
TIME_SYSTEM    = UTC
MEAN_ELEMENT_THEORY = SGP/SGP4

EPOCH          = 2025-11-10T22:00:00.999936
MEAN_MOTION    = 15.65764737
ECCENTRICITY   = .00011581
INCLINATION    = 53.1592
RA_OF_ASC_NODE = 298.0995
ARG_OF_PERICENTER = 95.1748
MEAN_ANOMALY   = 287.8375

EPHEMERIS_TYPE = 0
CLASSIFICATION_TYPE = U
NORAD_CAT_ID   = 66107
ELEMENT_SET_NO = 999
REV_AT_EPOCH   = 476
BSTAR          = -.21852763E-1
MEAN_MOTION_DOT = -.1986107E-1
MEAN_MOTION_DDOT = 0

CCSDS_OMM_VERS = 2.0
CREATION_DATE  = 
ORIGINATOR     = 

OBJECT_NAME    = STARLINK-35590
OBJECT_ID      = 2025-236Y
CENTER_NAME    = EARTH
REF_FRAME      = TEME
TIME_SYSTEM    = UTC
MEAN_ELEMENT_THEORY = SGP/SGP4

EPOCH          = 2025-11-10T22:00:00.999936
MEAN_MOTION    = 15.65766486
ECCENTRICITY   = .00011191
INCLINATION    = 53.1593
RA_OF_ASC_NODE = 298.0917
ARG_OF_PERICENTER = 93.8008
MEAN_ANOMALY   = 293.0456

EPHEMERIS_TYPE = 0
CLASSIFICATION_TYPE = U
NORAD_CAT_ID   = 66108
ELEMENT_SET_NO = 999
REV_AT_EPOCH   = 470
BSTAR          = -.21892633E-1
MEAN_MOTION_DOT = -.1989388E-1
MEAN_MOTION_DDOT = 0

CCSDS_OMM_VERS = 2.0
CREATION_DATE  = 
ORIGINATOR     = 

OBJECT_NAME    = STARLINK-35545
OBJECT_ID      = 2025-236Z
CENTER_NAME    = EARTH
REF_FRAME      = TEME
TIME_SYSTEM    = UTC
MEAN_ELEMENT_THEORY = SGP/SGP4

EPOCH          = 2025-11-10T22:00:00.999936
MEAN_MOTION    = 15.65768290
ECCENTRICITY   = .00010836
INCLINATION    = 53.1593
RA_OF_ASC_NODE = 298.0956
ARG_OF_PERICENTER = 95.4333
MEAN_ANOMALY   = 289.4949

EPHEMERIS_TYPE = 0
CLASSIFICATION_TYPE = U
NORAD_CAT_ID   = 66109
ELEMENT_SET_NO = 999
REV_AT_EPOCH   = 476
BSTAR          = -.21909412E-1
MEAN_MOTION_DOT = -.199083E-1
MEAN_MOTION_DDOT = 0

CCSDS_OMM_VERS = 2.0
CREATION_DATE  = 
ORIGINATOR     = 

OBJECT_NAME    = STARLINK-35427
OBJECT_ID      = 2025-236AA
CENTER_NAME    = EARTH
REF_FRAME      = TEME
TIME_SYSTEM    = UTC
MEAN_ELEMENT_THEORY = SGP/SGP4

EPOCH          = 2025-11-10T22:00:00.999936
MEAN_MOTION    = 15.65764666
ECCENTRICITY   = .00010376
INCLINATION    = 53.1593
RA_OF_ASC_NODE = 298.0872
ARG_OF_PERICENTER = 85.6970
MEAN_ANOMALY   = 303.0679

EPHEMERIS_TYPE = 0
CLASSIFICATION_TYPE = U
NORAD_CAT_ID   = 66110
ELEMENT_SET_NO = 999
REV_AT_EPOCH   = 476
BSTAR          = -.21869465E-1
MEAN_MOTION_DOT = -.1987347E-1
MEAN_MOTION_DDOT = 0

CCSDS_OMM_VERS = 2.0
CREATION_DATE  = 
ORIGINATOR     = 

OBJECT_NAME    = STARLINK-35574
OBJECT_ID      = 2025-236AB
CENTER_NAME    = EARTH
REF_FRAME      = TEME
TIME_SYSTEM    = UTC
MEAN_ELEMENT_THEORY = SGP/SGP4

EPOCH          = 2025-11-10T22:00:00.999936
MEAN_MOTION    = 15.65764573
ECCENTRICITY   = .00010539
INCLINATION    = 53.1592
RA_OF_ASC_NODE = 298.0835
ARG_OF_PERICENTER = 92.8425
MEAN_ANOMALY   = 297.8380

EPHEMERIS_TYPE = 0
CLASSIFICATION_TYPE = U
NORAD_CAT_ID   = 66111
ELEMENT_SET_NO = 999
REV_AT_EPOCH   = 470
BSTAR          = -.21850744E-1
MEAN_MOTION_DOT = -.1985857E-1
MEAN_MOTION_DDOT = 0

CCSDS_OMM_VERS = 2.0
CREATION_DATE  = 
ORIGINATOR     = 

OBJECT_NAME    = STARLINK-35531
OBJECT_ID      = 2025-236AC
CENTER_NAME    = EARTH
REF_FRAME      = TEME
TIME_SYSTEM    = UTC
MEAN_ELEMENT_THEORY = SGP/SGP4

EPOCH          = 2025-11-10T22:00:00.999936
MEAN_MOTION    = 15.65766003
ECCENTRICITY   = .00011325
INCLINATION    = 53.1591
RA_OF_ASC_NODE = 298.0753
ARG_OF_PERICENTER = 87.1952
MEAN_ANOMALY   = 307.3196

EPHEMERIS_TYPE = 0
CLASSIFICATION_TYPE = U
NORAD_CAT_ID   = 66112
ELEMENT_SET_NO = 999
REV_AT_EPOCH   = 476
BSTAR          = -.21891521E-1
MEAN_MOTION_DOT = -.1989275E-1
MEAN_MOTION_DDOT = 0

CCSDS_OMM_VERS = 2.0
CREATION_DATE  = 
ORIGINATOR     = 

OBJECT_NAME    = STARLINK-35491
OBJECT_ID      = 2025-236AD
CENTER_NAME    = EARTH
REF_FRAME      = TEME
TIME_SYSTEM    = UTC
MEAN_ELEMENT_THEORY = SGP/SGP4

EPOCH          = 2025-11-10T22:00:00.999936
MEAN_MOTION    = 15.65764187
ECCENTRICITY   = .00011017
INCLINATION    = 53.1591
RA_OF_ASC_NODE = 298.0795
ARG_OF_PERICENTER = 87.3345
MEAN_ANOMALY   = 305.2642

EPHEMERIS_TYPE = 0
CLASSIFICATION_TYPE = U
NORAD_CAT_ID   = 66113
ELEMENT_SET_NO = 999
REV_AT_EPOCH   = 476
BSTAR          = -.21859561E-1
MEAN_MOTION_DOT = -.1986569E-1
MEAN_MOTION_DDOT = 0

