STARLINK-35599          
1 66102U 25236S   25314.91667824 -.01986408  00000+0 -21855-1 0  9990
2 66102  53.1592 298.1205 0001173  89.6469 283.7793 15.65765797  4701
STARLINK-35622          
1 66103U 25236T   25314.91667824 -.01984909  00000+0 -21840-1 0  9999
2 66103  53.1593 298.1123 0001029  91.6094 285.6548 15.65763216  4768
STARLINK-35452          
1 66104U 25236U   25314.91667824 -.01987776  00000+0 -21875-1 0  9993
2 66104  53.1593 298.1161 0001069  90.9735 284.3741 15.65764406  4762
STARLINK-35561          
1 66105U 25236V   25314.91667824 -.01989317  00000+0 -21894-1 0  9998
2 66105  53.1589 298.1080 0001105  96.7322 282.4504 15.65764577  4704
STARLINK-35584          
1 66106U 25236W   25314.91667824 -.01986338  00000+0 -21857-1 0  9998
2 66106  53.1592 298.1034 0001105  89.5537 291.5433 15.65764176  4769
STARLINK-35593          
1 66107U 25236X   25314.91667824 -.01986107  00000+0 -21853-1 0  9999
2 66107  53.1592 298.0995 0001158  95.1748 287.8375 15.65764737  4766
STARLINK-35590          
1 66108U 25236Y   25314.91667824 -.01989388  00000+0 -21893-1 0  9998
2 66108  53.1593 298.0917 0001119  93.8008 293.0456 15.65766486  4709
STARLINK-35545          
1 66109U 25236Z   25314.91667824 -.01990830  00000+0 -21909-1 0  9991
2 66109  53.1593 298.0956 0001083  95.4333 289.4949 15.65768290  4769
STARLINK-35427          
1 66110U 25236AA  25314.91667824 -.01987347  00000+0 -21869-1 0  9997
2 66110  53.1593 298.0872 0001037  85.6970 303.0679 15.65764666  4761
STARLINK-35574          
1 66111U 25236AB  25314.91667824 -.01985857  00000+0 -21851-1 0  9993
2 66111  53.1592 298.0835 0001053  92.8425 297.8380 15.65764573  4703
STARLINK-35531          
1 66112U 25236AC  25314.91667824 -.01989275  00000+0 -21892-1 0  9997
2 66112  53.1591 298.0753 0001132  87.1952 307.3196 15.65766003  4760
STARLINK-35491          
1 66113U 25236AD  25314.91667824 -.01986569  00000+0 -21860-1 0  9996
2 66113  53.1591 298.0795 0001101  87.3345 305.2642 15.65764187  4765
